start=new Date('2022-04-09T00:00:00.000Z').valueOf();
sats=[{"OBJECT_TYPE":"PAYLOAD","SEMIMAJOR_AXIS":"6925.273","RCS_SIZE":"LARGE","SITE":"AFETR","BSTAR":"0.00076071000000","APOAPSIS":"548.218","MEAN_MOTION_DDOT":"0.0000000000000","NORAD_CAT_ID":"46703","MEAN_MOTION_DOT":"0.00011075","INCLINATION":"53.0522","RA_OF_ASC_NODE":"186.4576","MEAN_MOTION":"15.06424692","TIME_SYSTEM":"UTC","PERIAPSIS":"546.058","OBJECT_ID":"2020-073AK","CENTER_NAME":"EARTH","ARG_OF_PERICENTER":"56.2355","MEAN_ELEMENT_THEORY":"SGP4","PERIOD":"95.591","EPOCH":"2022-04-08T12:04:28.329888","ECCENTRICITY":"0.00015600","FILE":"3393517","COUNTRY_CODE":"US","REF_FRAME":"TEME","OBJECT_NAME":"STARLINK-1803","ELEMENT_SET_NO":"999","EPHEMERIS_TYPE":"0","TLE_LINE2":"2 46703  53.0522 186.4576 0001560  56.2355 303.8782 15.06424692 81418","REV_AT_EPOCH":"8141","CLASSIFICATION_TYPE":"U","DECAY_DATE":null,"GP_ID":"200746326","LAUNCH_DATE":"2020-10-18","MEAN_ANOMALY":"303.8782","TLE_LINE1":"1 46703U 20073AK  22098.50310567  .00011075  00000-0  76071-3 0  9998"},{"EPHEMERIS_TYPE":"0","ELEMENT_SET_NO":"999","OBJECT_NAME":"STARLINK-1804","REF_FRAME":"TEME","FILE":"3393990","COUNTRY_CODE":"US","EPOCH":"2022-04-08T21:08:30.578208","ECCENTRICITY":"0.00016920","MEAN_ELEMENT_THEORY":"SGP4","PERIOD":"95.591","ARG_OF_PERICENTER":"63.5645","CENTER_NAME":"EARTH","TLE_LINE1":"1 46704U 20073AL  22098.88090947  .00006260  00000-0  43860-3 0  9997","MEAN_ANOMALY":"296.5518","LAUNCH_DATE":"2020-10-18","GP_ID":"200781316","DECAY_DATE":null,"CLASSIFICATION_TYPE":"U","TLE_LINE2":"2 46704  53.0537 164.7751 0001692  63.5645 296.5518 15.06417080 81753","REV_AT_EPOCH":"8175","APOAPSIS":"548.333","MEAN_MOTION_DDOT":"0.0000000000000","BSTAR":"0.00043860000000","SITE":"AFETR","RCS_SIZE":"LARGE","OBJECT_TYPE":"PAYLOAD","SEMIMAJOR_AXIS":"6925.296","OBJECT_ID":"2020-073AL","PERIAPSIS":"545.989","TIME_SYSTEM":"UTC","RA_OF_ASC_NODE":"164.7751","MEAN_MOTION":"15.06417080","MEAN_MOTION_DOT":"0.00006260","INCLINATION":"53.0537","NORAD_CAT_ID":"46704"},{"NORAD_CAT_ID":"46705","MEAN_MOTION_DOT":"0.00010425","INCLINATION":"53.0533","MEAN_MOTION":"15.06420564","RA_OF_ASC_NODE":"201.1852","TIME_SYSTEM":"UTC","PERIAPSIS":"546.130","OBJECT_ID":"2020-073AM","OBJECT_TYPE":"PAYLOAD","SEMIMAJOR_AXIS":"6925.286","RCS_SIZE":"LARGE","SITE":"AFETR","BSTAR":"0.00071732000000","APOAPSIS":"548.171","MEAN_MOTION_DDOT":"0.0000000000000","TLE_LINE2":"2 46705  53.0533 201.1852 0001474  52.8166 307.2958 15.06420564 81215","REV_AT_EPOCH":"8121","CLASSIFICATION_TYPE":"U","DECAY_DATE":null,"GP_ID":"200747328","LAUNCH_DATE":"2020-10-18","MEAN_ANOMALY":"307.2958","TLE_LINE1":"1 46705U 20073AM  22098.56253782  .00010425  00000-0  71732-3 0  9998","ARG_OF_PERICENTER":"52.8166","CENTER_NAME":"EARTH","MEAN_ELEMENT_THEORY":"SGP4","PERIOD":"95.591","EPOCH":"2022-04-08T13:30:03.267648","ECCENTRICITY":"0.00014740","COUNTRY_CODE":"US","FILE":"3393517","REF_FRAME":"TEME","OBJECT_NAME":"STARLINK-1805","ELEMENT_SET_NO":"999","EPHEMERIS_TYPE":"0"},{"MEAN_MOTION_DOT":"0.00004368","INCLINATION":"53.0547","NORAD_CAT_ID":"46706","TIME_SYSTEM":"UTC","MEAN_MOTION":"15.06419322","RA_OF_ASC_NODE":"185.4231","PERIAPSIS":"545.807","OBJECT_ID":"2020-073AN","RCS_SIZE":"LARGE","OBJECT_TYPE":"PAYLOAD","SEMIMAJOR_AXIS":"6925.289","SITE":"AFETR","APOAPSIS":"548.501","MEAN_MOTION_DDOT":"0.0000000000000","BSTAR":"0.00031182000000","CLASSIFICATION_TYPE":"U","REV_AT_EPOCH":"8145","TLE_LINE2":"2 46706  53.0547 185.4231 0001945  39.8456 320.2676 15.06419322 81454","LAUNCH_DATE":"2020-10-18","GP_ID":"200780814","DECAY_DATE":null,"MEAN_ANOMALY":"320.2676","TLE_LINE1":"1 46706U 20073AN  22098.73531039  .00004368  00000-0  31182-3 0  9996","MEAN_ELEMENT_THEORY":"SGP4","PERIOD":"95.591","CENTER_NAME":"EARTH","ARG_OF_PERICENTER":"39.8456","COUNTRY_CODE":"US","FILE":"3393990","EPOCH":"2022-04-08T17:38:50.817696","ECCENTRICITY":"0.00019450","OBJECT_NAME":"STARLINK-1807","REF_FRAME":"TEME","EPHEMERIS_TYPE":"0","ELEMENT_SET_NO":"999"},{"SITE":"AFETR","APOAPSIS":"548.415","MEAN_MOTION_DDOT":"0.0000000000000","BSTAR":"0.00036319000000","RCS_SIZE":"LARGE","SEMIMAJOR_AXIS":"6925.319","OBJECT_TYPE":"PAYLOAD","PERIAPSIS":"545.953","OBJECT_ID":"2020-073AP","INCLINATION":"53.0526","MEAN_MOTION_DOT":"0.00005134","NORAD_CAT_ID":"46707","TIME_SYSTEM":"UTC","RA_OF_ASC_NODE":"165.7499","MEAN_MOTION":"15.06409601","OBJECT_NAME":"STARLINK-1808","REF_FRAME":"TEME","EPHEMERIS_TYPE":"0","ELEMENT_SET_NO":"999","PERIOD":"95.592","MEAN_ELEMENT_THEORY":"SGP4","CENTER_NAME":"EARTH","ARG_OF_PERICENTER":"49.2831","COUNTRY_CODE":"US","FILE":"3393990","ECCENTRICITY":"0.00017780","EPOCH":"2022-04-08T15:50:02.959008","MEAN_ANOMALY":"310.8312","TLE_LINE1":"1 46707U 20073AP  22098.65975647  .00005134  00000-0  36319-3 0  9994","CLASSIFICATION_TYPE":"U","REV_AT_EPOCH":"8172","TLE_LINE2":"2 46707  53.0526 165.7499 0001778  49.2831 310.8312 15.06409601 81726","LAUNCH_DATE":"2020-10-18","DECAY_DATE":null,"GP_ID":"200780565"},{"PERIAPSIS":"343.710","OBJECT_ID":"2020-073AQ","NORAD_CAT_ID":"46708","INCLINATION":"53.0494","MEAN_MOTION_DOT":"0.00120372","MEAN_MOTION":"15.74235000","RA_OF_ASC_NODE":"94.9685","TIME_SYSTEM":"UTC","SITE":"AFETR","BSTAR":"0.00081242000000","MEAN_MOTION_DDOT":"0.0000000000000","APOAPSIS":"349.912","SEMIMAJOR_AXIS":"6724.946","OBJECT_TYPE":"PAYLOAD","RCS_SIZE":"LARGE","MEAN_ANOMALY":"305.9151","TLE_LINE1":"1 46708U 20073AQ  22098.82568747  .00120372  00000-0  81242-3 0  9990","REV_AT_EPOCH":"8273","TLE_LINE2":"2 46708  53.0494  94.9685 0004611  54.2296 305.9151 15.74235000 82734","CLASSIFICATION_TYPE":"U","GP_ID":"200781816","DECAY_DATE":null,"LAUNCH_DATE":"2020-10-18","REF_FRAME":"TEME","OBJECT_NAME":"STARLINK-1809","ELEMENT_SET_NO":"999","EPHEMERIS_TYPE":"0","ARG_OF_PERICENTER":"54.2296","CENTER_NAME":"EARTH","PERIOD":"91.473","MEAN_ELEMENT_THEORY":"SGP4","ECCENTRICITY":"0.00046110","EPOCH":"2022-04-08T19:48:59.397408","FILE":"3393990","COUNTRY_CODE":"US"},{"SEMIMAJOR_AXIS":"6925.300","OBJECT_TYPE":"PAYLOAD","RCS_SIZE":"LARGE","SITE":"AFETR","BSTAR":"0.00023108000000","APOAPSIS":"548.310","MEAN_MOTION_DDOT":"0.0000000000000","NORAD_CAT_ID":"46709","INCLINATION":"53.0539","MEAN_MOTION_DOT":"0.00003163","RA_OF_ASC_NODE":"200.1828","MEAN_MOTION":"15.06415926","TIME_SYSTEM":"UTC","PERIAPSIS":"546.019","OBJECT_ID":"2020-073AR","CENTER_NAME":"EARTH","ARG_OF_PERICENTER":"52.3199","PERIOD":"95.591","MEAN_ELEMENT_THEORY":"SGP4","ECCENTRICITY":"0.00016540","EPOCH":"2022-04-08T18:57:44.821440","COUNTRY_CODE":"US","FILE":"3393816","REF_FRAME":"TEME","OBJECT_NAME":"STARLINK-1810","ELEMENT_SET_NO":"999","EPHEMERIS_TYPE":"0","REV_AT_EPOCH":"8172","TLE_LINE2":"2 46709  53.0539 200.1828 0001654  52.3199 307.7940 15.06415926 81726","CLASSIFICATION_TYPE":"U","GP_ID":"200755942","DECAY_DATE":null,"LAUNCH_DATE":"2020-10-18","MEAN_ANOMALY":"307.7940","TLE_LINE1":"1 46709U 20073AR  22098.79010210  .00003163  00000-0  23108-3 0  9999"},{"PERIOD":"95.592","MEAN_ELEMENT_THEORY":"SGP4","CENTER_NAME":"EARTH","ARG_OF_PERICENTER":"62.4957","FILE":"3393990","COUNTRY_CODE":"US","ECCENTRICITY":"0.00016840","EPOCH":"2022-04-08T14:54:58.420800","OBJECT_NAME":"STARLINK-1811","REF_FRAME":"TEME","EPHEMERIS_TYPE":"0","ELEMENT_SET_NO":"999","CLASSIFICATION_TYPE":"U","REV_AT_EPOCH":"8122","TLE_LINE2":"2 46710  53.0528 200.9242 0001684  62.4957 297.6203 15.06407471 81221","LAUNCH_DATE":"2020-10-18","DECAY_DATE":null,"GP_ID":"200780315","MEAN_ANOMALY":"297.6203","TLE_LINE1":"1 46710U 20073AS  22098.62150950  .00003025  00000-0  22188-3 0  9993","RCS_SIZE":"LARGE","SEMIMAJOR_AXIS":"6925.326","OBJECT_TYPE":"PAYLOAD","SITE":"AFETR","APOAPSIS":"548.357","MEAN_MOTION_DDOT":"0.0000000000000","BSTAR":"0.00022188000000","INCLINATION":"53.0528","MEAN_MOTION_DOT":"0.00003025","NORAD_CAT_ID":"46710","TIME_SYSTEM":"UTC","RA_OF_ASC_NODE":"200.9242","MEAN_MOTION":"15.06407471","PERIAPSIS":"546.024","OBJECT_ID":"2020-073AS"},{"BSTAR":"0.00114080000000","APOAPSIS":"548.469","MEAN_MOTION_DDOT":"0.0000000000000","SITE":"AFETR","SEMIMAJOR_AXIS":"6925.286","OBJECT_TYPE":"PAYLOAD","RCS_SIZE":"LARGE","OBJECT_ID":"2020-073AT","PERIAPSIS":"545.833","RA_OF_ASC_NODE":"186.0566","MEAN_MOTION":"15.06420313","TIME_SYSTEM":"UTC","NORAD_CAT_ID":"46711","INCLINATION":"53.0532","MEAN_MOTION_DOT":"0.00016761","ELEMENT_SET_NO":"999","EPHEMERIS_TYPE":"0","REF_FRAME":"TEME","OBJECT_NAME":"STARLINK-1813","ECCENTRICITY":"0.00019030","EPOCH":"2022-04-08T14:17:09.845376","FILE":"3393990","COUNTRY_CODE":"US","CENTER_NAME":"EARTH","ARG_OF_PERICENTER":"42.2867","PERIOD":"95.591","MEAN_ELEMENT_THEORY":"SGP4","TLE_LINE1":"1 46711U 20073AT  22098.59525284  .00016761  00000-0  11408-2 0  9999","MEAN_ANOMALY":"317.8268","DECAY_DATE":null,"GP_ID":"200781065","LAUNCH_DATE":"2020-10-18","REV_AT_EPOCH":"8143","TLE_LINE2":"2 46711  53.0532 186.0566 0001903  42.2867 317.8268 15.06420313 81439","CLASSIFICATION_TYPE":"U"},{"PERIAPSIS":"545.907","OBJECT_ID":"2020-073AU","INCLINATION":"53.0521","MEAN_MOTION_DOT":"0.00005876","NORAD_CAT_ID":"46712","TIME_SYSTEM":"UTC","MEAN_MOTION":"15.06422890","RA_OF_ASC_NODE":"185.9058","SITE":"AFETR","APOAPSIS":"548.380","MEAN_MOTION_DDOT":"0.0000000000000","BSTAR":"0.00041281000000","RCS_SIZE":"LARGE","SEMIMAJOR_AXIS":"6925.278","OBJECT_TYPE":"PAYLOAD","MEAN_ANOMALY":"307.1075","TLE_LINE1":"1 46712U 20073AU  22098.62747323  .00005876  00000-0  41281-3 0  9992","CLASSIFICATION_TYPE":"U","TLE_LINE2":"2 46712  53.0521 185.9058 0001785  53.0077 307.1075 15.06422890 81433","REV_AT_EPOCH":"8143","LAUNCH_DATE":"2020-10-18","GP_ID":"200781317","DECAY_DATE":null,"OBJECT_NAME":"STARLINK-1814","REF_FRAME":"TEME","EPHEMERIS_TYPE":"0","ELEMENT_SET_NO":"999","PERIOD":"95.591","MEAN_ELEMENT_THEORY":"SGP4","ARG_OF_PERICENTER":"53.0077","CENTER_NAME":"EARTH","FILE":"3393990","COUNTRY_CODE":"US","ECCENTRICITY":"0.00017850","EPOCH":"2022-04-08T15:03:33.687072"}];
